{"type": "FeatureCollection", "features": [{"type": "Feature", "properties": {"norad_id": 22490, "name": "SCD 1", "group": "resource", "lat": 2.1989259907799887, "lon": -38.72827922257879, "alt_km": 744.3199126342097, "timestamp": "2025-12-06T14:35:36.783777+00:00", "meta": {"OBJECT_NAME": "SCD 1", "OBJECT_ID": "1993-009B", "EPOCH": "2025-12-06T06:24:53.284032", "MEAN_MOTION": 14.4599191, "ECCENTRICITY": 0.00417472, "INCLINATION": 24.9708, "RA_OF_ASC_NODE": 318.6416, "ARG_OF_PERICENTER": 256.1513, "MEAN_ANOMALY": 131.0889, "EPHEMERIS_TYPE": 0, "CLASSIFICATION_TYPE": "U", "NORAD_CAT_ID": 22490, "ELEMENT_SET_NO": 999, "REV_AT_EPOCH": 73316, "BSTAR": 0.00018433233, "MEAN_MOTION_DOT": 8.61e-06, "MEAN_MOTION_DDOT": 0}, "tle": {"line1": "1 22490U 93009B   25340.26728338  .00000861  00000+0  18433-3 0  9997", "line2": "2 22490  24.9708 318.6416 0041747 256.1513 131.0889 14.45991910733167"}}, "geometry": {"type": "Point", "coordinates": [-38.72827922257879, 2.1989259907799887]}}, {"type": "Feature", "properties": {"norad_id": 25397, "name": "TECHSAT 1B (GO-32)", "group": "resource", "lat": 63.5057160806601, "lon": -54.84153159036535, "alt_km": 802.7865947973296, "timestamp": "2025-12-06T14:35:36.783803+00:00", "meta": {"OBJECT_NAME": "TECHSAT 1B (GO-32)", "OBJECT_ID": "1998-043D", "EPOCH": "2025-12-05T23:06:59.931360", "MEAN_MOTION": 14.24374078, "ECCENTRICITY": 0.00021938, "INCLINATION": 98.9913, "RA_OF_ASC_NODE": 323.0191, "ARG_OF_PERICENTER": 68.3307, "MEAN_ANOMALY": 291.8105, "EPHEMERIS_TYPE": 0, "CLASSIFICATION_TYPE": "U", "NORAD_CAT_ID": 25397, "ELEMENT_SET_NO": 999, "REV_AT_EPOCH": 42382, "BSTAR": 0.00010199191, "MEAN_MOTION_DOT": 1.89e-06, "MEAN_MOTION_DDOT": 0}, "tle": {"line1": "1 25397U 98043D   25339.96319365  .00000189  00000+0  10199-3 0  9994", "line2": "2 25397  98.9913 323.0191 0002193  68.3307 291.8105 14.24374078423823"}}, "geometry": {"type": "Point", "coordinates": [-54.84153159036535, 63.5057160806601]}}, {"type": "Feature", "properties": {"norad_id": 25504, "name": "SCD 2", "group": "resource", "lat": 18.783640008859035, "lon": -133.40175254680886, "alt_km": 747.1667539412356, "timestamp": "2025-12-06T14:35:36.783819+00:00", "meta": {"OBJECT_NAME": "SCD 2", "OBJECT_ID": "1998-060A", "EPOCH": "2025-12-06T06:49:19.147296", "MEAN_MOTION": 14.45417912, "ECCENTRICITY": 0.00166061, "INCLINATION": 24.9935, "RA_OF_ASC_NODE": 181.7026, "ARG_OF_PERICENTER": 244.517, "MEAN_ANOMALY": 276.7453, "EPHEMERIS_TYPE": 0, "CLASSIFICATION_TYPE": "U", "NORAD_CAT_ID": 25504, "ELEMENT_SET_NO": 999, "REV_AT_EPOCH": 43238, "BSTAR": 0.00013765331, "MEAN_MOTION_DOT": 6.75e-06, "MEAN_MOTION_DDOT": 0}, "tle": {"line1": "1 25504U 98060A   25340.28424939  .00000675  00000+0  13765-3 0  9996", "line2": "2 25504  24.9935 181.7026 0016606 244.5170 276.7453 14.45417912432389"}}, "geometry": {"type": "Point", "coordinates": [-133.40175254680886, 18.783640008859035]}}, {"type": "Feature", "properties": {"norad_id": 25757, "name": "DLR-TUBSAT", "group": "resource", "lat": 26.287714278423806, "lon": -39.38261600910784, "alt_km": 726.5786743863982, "timestamp": "2025-12-06T14:35:36.783832+00:00", "meta": {"OBJECT_NAME": "DLR-TUBSAT", "OBJECT_ID": "1999-029B", "EPOCH": "2025-12-06T04:33:01.294848", "MEAN_MOTION": 14.52353701, "ECCENTRICITY": 0.00135413, "INCLINATION": 98.6557, "RA_OF_ASC_NODE": 324.5014, "ARG_OF_PERICENTER": 213.3546, "MEAN_ANOMALY": 146.6796, "EPHEMERIS_TYPE": 0, "CLASSIFICATION_TYPE": "U", "NORAD_CAT_ID": 25757, "ELEMENT_SET_NO": 999, "REV_AT_EPOCH": 40523, "BSTAR": 7.9285525e-05, "MEAN_MOTION_DOT": 2.75e-06, "MEAN_MOTION_DDOT": 0}, "tle": {"line1": "1 25757U 99029B   25340.18959832  .00000275  00000+0  79286-4 0  9993", "line2": "2 25757  98.6557 324.5014 0013541 213.3546 146.6796 14.52353701405239"}}, "geometry": {"type": "Point", "coordinates": [-39.38261600910784, 26.287714278423806]}}, {"type": "Feature", "properties": {"norad_id": 25994, "name": "TERRA", "group": "resource", "lat": -78.4482292267106, "lon": 169.2079783001395, "alt_km": 699.6462422898694, "timestamp": "2025-12-06T14:35:36.783843+00:00", "meta": {"OBJECT_NAME": "TERRA", "OBJECT_ID": "1999-068A", "EPOCH": "2025-12-06T07:06:33.235200", "MEAN_MOTION": 14.60941687, "ECCENTRICITY": 0.00034881, "INCLINATION": 97.9757, "RA_OF_ASC_NODE": 32.2169, "ARG_OF_PERICENTER": 110.7977, "MEAN_ANOMALY": 311.6416, "EPHEMERIS_TYPE": 0, "CLASSIFICATION_TYPE": "U", "NORAD_CAT_ID": 25994, "ELEMENT_SET_NO": 999, "REV_AT_EPOCH": 38144, "BSTAR": 0.0002242901, "MEAN_MOTION_DOT": 1.054e-05, "MEAN_MOTION_DDOT": 0}, "tle": {"line1": "1 25994U 99068A   25340.29621800  .00001054  00000+0  22429-3 0  9994", "line2": "2 25994  97.9757  32.2169 0003488 110.7977 311.6416 14.60941687381441"}}, "geometry": {"type": "Point", "coordinates": [169.2079783001395, -78.4482292267106]}}, {"type": "Feature", "properties": {"norad_id": 27004, "name": "MAROC-TUBSAT", "group": "resource", "lat": 80.02306801359609, "lon": 69.95406446619532, "alt_km": 1005.1510712454728, "timestamp": "2025-12-06T14:35:36.783856+00:00", "meta": {"OBJECT_NAME": "MAROC-TUBSAT", "OBJECT_ID": "2001-056D", "EPOCH": "2025-12-06T06:16:29.634240", "MEAN_MOTION": 13.70252416, "ECCENTRICITY": 0.0019093, "INCLINATION": 99.7911, "RA_OF_ASC_NODE": 148.593, "ARG_OF_PERICENTER": 277.4021, "MEAN_ANOMALY": 261.763, "EPHEMERIS_TYPE": 0, "CLASSIFICATION_TYPE": "U", "NORAD_CAT_ID": 27004, "ELEMENT_SET_NO": 999, "REV_AT_EPOCH": 19976, "BSTAR": 3.8705499e-05, "MEAN_MOTION_DOT": -1.3e-07, "MEAN_MOTION_DDOT": 0}, "tle": {"line1": "1 27004U 01056D   25340.26145410 -.00000013  00000+0  38705-4 0  9993", "line2": "2 27004  99.7911 148.5930 0019093 277.4021 261.7630 13.70252416199764"}}, "geometry": {"type": "Point", "coordinates": [69.95406446619532, 80.02306801359609]}}, {"type": "Feature", "properties": {"norad_id": 27424, "name": "AQUA", "group": "resource", "lat": 61.80622604389398, "lon": 137.39394805883234, "alt_km": 680.7552584700234, "timestamp": "2025-12-06T14:35:36.783868+00:00", "meta": {"OBJECT_NAME": "AQUA", "OBJECT_ID": "2002-022A", "EPOCH": "2025-12-06T04:15:07.781760", "MEAN_MOTION": 14.61784704, "ECCENTRICITY": 8.907e-05, "INCLINATION": 98.4028, "RA_OF_ASC_NODE": 300.9497, "ARG_OF_PERICENTER": 112.7706, "MEAN_ANOMALY": 257.994, "EPHEMERIS_TYPE": 0, "CLASSIFICATION_TYPE": "U", "NORAD_CAT_ID": 27424, "ELEMENT_SET_NO": 999, "REV_AT_EPOCH": 25507, "BSTAR": 0.00045681556, "MEAN_MOTION_DOT": 2.231e-05, "MEAN_MOTION_DDOT": 0}, "tle": {"line1": "1 27424U 02022A   25340.17717340  .00002231  00000+0  45682-3 0  9994", "line2": "2 27424  98.4028 300.9497 0000890 112.7706 257.9940 14.61784704255072"}}, "geometry": {"type": "Point", "coordinates": [137.39394805883234, 61.80622604389398]}}, {"type": "Feature", "properties": {"norad_id": 28051, "name": "IRS-P6 (RESOURCESAT-1)", "group": "resource", "lat": -8.48606909315202, "lon": -159.93645111448848, "alt_km": 730.6394687567918, "timestamp": "2025-12-06T14:35:36.783878+00:00", "meta": {"OBJECT_NAME": "IRS-P6 (RESOURCESAT-1)", "OBJECT_ID": "2003-046A", "EPOCH": "2025-12-06T07:19:17.710176", "MEAN_MOTION": 14.36070444, "ECCENTRICITY": 0.00638236, "INCLINATION": 98.2187, "RA_OF_ASC_NODE": 21.0102, "ARG_OF_PERICENTER": 200.0411, "MEAN_ANOMALY": 222.9995, "EPHEMERIS_TYPE": 0, "CLASSIFICATION_TYPE": "U", "NORAD_CAT_ID": 28051, "ELEMENT_SET_NO": 999, "REV_AT_EPOCH": 15284, "BSTAR": 0.00016106496, "MEAN_MOTION_DOT": 4.38e-06, "MEAN_MOTION_DDOT": 0}, "tle": {"line1": "1 28051U 03046A   25340.30506609  .00000438  00000+0  16106-3 0  9993", "line2": "2 28051  98.2187  21.0102 0063823 200.0411 222.9995 14.36070444152840"}}, "geometry": {"type": "Point", "coordinates": [-159.93645111448848, -8.48606909315202]}}, {"type": "Feature", "properties": {"norad_id": 28220, "name": "SHIYAN-1 (SY-1)", "group": "resource", "lat": -15.471087788925068, "lon": -140.4148242629697, "alt_km": 490.6684823603864, "timestamp": "2025-12-06T14:35:36.783889+00:00", "meta": {"OBJECT_NAME": "SHIYAN-1 (SY-1)", "OBJECT_ID": "2004-012A", "EPOCH": "2025-12-06T04:18:34.684704", "MEAN_MOTION": 15.27889666, "ECCENTRICITY": 0.00060906, "INCLINATION": 97.8945, "RA_OF_ASC_NODE": 41.3326, "ARG_OF_PERICENTER": 350.65, "MEAN_ANOMALY": 9.4623, "EPHEMERIS_TYPE": 0, "CLASSIFICATION_TYPE": "U", "NORAD_CAT_ID": 28220, "ELEMENT_SET_NO": 999, "REV_AT_EPOCH": 18156, "BSTAR": 0.00075130246, "MEAN_MOTION_DOT": 0.00020418, "MEAN_MOTION_DDOT": 0}, "tle": {"line1": "1 28220U 04012A   25340.17956811  .00020418  00000+0  75130-3 0  9996", "line2": "2 28220  97.8945  41.3326 0006090 350.6500   9.4623 15.27889666181564"}}, "geometry": {"type": "Point", "coordinates": [-140.4148242629697, -15.471087788925068]}}, {"type": "Feature", "properties": {"norad_id": 28376, "name": "AURA", "group": "resource", "lat": -81.2566213619206, "lon": 38.773084363877445, "alt_km": 698.3487694247542, "timestamp": "2025-12-06T14:35:36.783900+00:00", "meta": {"OBJECT_NAME": "AURA", "OBJECT_ID": "2004-026A", "EPOCH": "2025-12-06T06:47:54.836448", "MEAN_MOTION": 14.60923695, "ECCENTRICITY": 0.00011628, "INCLINATION": 98.3177, "RA_OF_ASC_NODE": 290.4799, "ARG_OF_PERICENTER": 93.0213, "MEAN_ANOMALY": 267.112, "EPHEMERIS_TYPE": 0, "CLASSIFICATION_TYPE": "U", "NORAD_CAT_ID": 28376, "ELEMENT_SET_NO": 999, "REV_AT_EPOCH": 13804, "BSTAR": 0.00049116304, "MEAN_MOTION_DOT": 2.357e-05, "MEAN_MOTION_DDOT": 0}, "tle": {"line1": "1 28376U 04026A   25340.28327357  .00002357  00000+0  49116-3 0  9999", "line2": "2 28376  98.3177 290.4799 0001162  93.0213 267.1120 14.60923695138041"}}, "geometry": {"type": "Point", "coordinates": [38.773084363877445, -81.2566213619206]}}]}